{"type": "FeatureCollection", "features": [ {"type": "Feature", "properties": {"norad_id": 37216, "name": "COSMO-SKYMED 4", "group": "resource", "lat": -26.281702607690246, "lon": 178.13349895127746, "alt_km": 628.546053095447, "timestamp": "2025-12-18T23:35:48.703960+00:00", "meta": {"OBJECT_NAME": "COSMO-SKYMED 4", "OBJECT_ID": "2010-060A", "EPOCH": "2025-12-18T13:59:41.479008", "MEAN_MOTION": 14.82150361, "ECCENTRICITY": 0.00013544, "INCLINATION": 97.88, "RA_OF_ASC_NODE": 173.8178, "ARG_OF_PERICENTER": 81.9902, "MEAN_ANOMALY": 278.1465, "EPHEMERIS_TYPE": 0, "CLASSIFICATION_TYPE": "U", "NORAD_CAT_ID": 37216, "ELEMENT_SET_NO": 999, "REV_AT_EPOCH": 81781, "BSTAR": 2.4926226e-05, "MEAN_MOTION_DOT": 1.46e-06, "MEAN_MOTION_DDOT": 0}, "tle": {"line1": "1 37216U 10060A   25352.58311897  .00000146  00000+0  24926-4 0  9992", "line2": "2 37216  97.8800 173.8178 0001354  81.9902 278.1465 14.82150361817819"}}, "geometry": {"type": "Point", "coordinates": [178.13349895127746, -26.281702607690246]}}, {"type": "Feature", "properties": {"norad_id": 37387, "name": "RESOURCESAT-2", "group": "resource", "lat": 19.49754864350441, "lon": 53.367354811169776, "alt_km": 815.6152752189728, "timestamp": "2025-12-18T23:35:48.703994+00:00", "meta": {"OBJECT_NAME": "RESOURCESAT-2", "OBJECT_ID": "2011-015A", "EPOCH": "2025-12-18T15:03:30.445344", "MEAN_MOTION": 14.21599547, "ECCENTRICITY": 0.00061591, "INCLINATION": 98.7871, "RA_OF_ASC_NODE": 56.1527, "ARG_OF_PERICENTER": 26.8957, "MEAN_ANOMALY": 333.2538, "EPHEMERIS_TYPE": 0, "CLASSIFICATION_TYPE": "U", "NORAD_CAT_ID": 37387, "ELEMENT_SET_NO": 999, "REV_AT_EPOCH": 76052, "BSTAR": 7.0908143e-05, "MEAN_MOTION_DOT": 1.11e-06, "MEAN_MOTION_DDOT": 0}, "tle": {"line1": "1 37387U 11015A   25352.62743571  .00000111  00000+0  70908-4 0  9998", "line2": "2 37387  98.7871  56.1527 0006159  26.8957 333.2538 14.21599547760528"}}, "geometry": {"type": "Point", "coordinates": [53.367354811169776, 19.49754864350441]}}, {"type": "Feature", "properties": {"norad_id": 37781, "name": "HAIYANG-2A", "group": "resource", "lat": -8.093848842350939, "lon": 172.48097749952444, "alt_km": 972.3334791325733, "timestamp": "2025-12-18T23:35:48.704007+00:00", "meta": {"OBJECT_NAME": "HAIYANG-2A", "OBJECT_ID": "2011-043A", "EPOCH": "2025-12-18T13:58:48.284256", "MEAN_MOTION": 13.78835416, "ECCENTRICITY": 0.00016424, "INCLINATION": 99.3373, "RA_OF_ASC_NODE": 353.4272, "ARG_OF_PERICENTER": 75.6034, "MEAN_ANOMALY": 284.53, "EPHEMERIS_TYPE": 0, "CLASSIFICATION_TYPE": "U", "NORAD_CAT_ID": 37781, "ELEMENT_SET_NO": 999, "REV_AT_EPOCH": 72179, "BSTAR": 2.526474e-06, "MEAN_MOTION_DOT": -4.1e-07, "MEAN_MOTION_DDOT": 0}, "tle": {"line1": "1 37781U 11043A   25352.58250329 -.00000041  00000+0  25265-5 0  9996", "line2": "2 37781  99.3373 353.4272 0001642  75.6034 284.5300 13.78835416721790"}}, "geometry": {"type": "Point", "coordinates": [172.48097749952444, -8.093848842350939]}}, {"type": "Feature", "properties": {"norad_id": 37791, "name": "RASAT", "group": "resource", "lat": 35.63883652238164, "lon": -92.01712382706279, "alt_km": 667.3409110217217, "timestamp": "2025-12-18T23:35:48.704018+00:00", "meta": {"OBJECT_NAME": "RASAT", "OBJECT_ID": "2011-044D", "EPOCH": "2025-12-18T15:23:02.108832", "MEAN_MOTION": 14.67917617, "ECCENTRICITY": 0.00216677, "INCLINATION": 98.065, "RA_OF_ASC_NODE": 81.8111, "ARG_OF_PERICENTER": 47.1542, "MEAN_ANOMALY": 89.1533, "EPHEMERIS_TYPE": 0, "CLASSIFICATION_TYPE": "U", "NORAD_CAT_ID": 37791, "ELEMENT_SET_NO": 999, "REV_AT_EPOCH": 76669, "BSTAR": 8.8499488e-05, "MEAN_MOTION_DOT": 4.59e-06, "MEAN_MOTION_DDOT": 0}, "tle": {"line1": "1 37791U 11044D   25352.64099663  .00000459  00000+0  88499-4 0  9996", "line2": "2 37791  98.0650  81.8111 0021667  47.1542  89.1533 14.67917617766694"}}, "geometry": {"type": "Point", "coordinates": [-92.01712382706279, 35.63883652238164]}}, {"type": "Feature", "properties": {"norad_id": 37841, "name": "SRMSAT", "group": "resource", "lat": -3.062178347373765, "lon": -101.36407248554977, "alt_km": 860.6353731646468, "timestamp": "2025-12-18T23:35:48.704029+00:00", "meta": {"OBJECT_NAME": "SRMSAT", "OBJECT_ID": "2011-058D", "EPOCH": "2025-12-18T12:39:50.333760", "MEAN_MOTION": 14.11513423, "ECCENTRICITY": 0.00118983, "INCLINATION": 19.9721, "RA_OF_ASC_NODE": 72.9206, "ARG_OF_PERICENTER": 17.1878, "MEAN_ANOMALY": 11.9497, "EPHEMERIS_TYPE": 0, "CLASSIFICATION_TYPE": "U", "NORAD_CAT_ID": 37841, "ELEMENT_SET_NO": 999, "REV_AT_EPOCH": 73226, "BSTAR": 7.1009645e-05, "MEAN_MOTION_DOT": 3.95e-06, "MEAN_MOTION_DDOT": 0}, "tle": {"line1": "1 37841U 11058D   25352.52766590  .00000395  00000+0  71010-4 0  9994", "line2": "2 37841  19.9721  72.9206 0011898  17.1878  11.9497 14.11513423732265"}}, "geometry": {"type": "Point", "coordinates": [-101.36407248554977, -3.062178347373765]}}, {"type": "Feature", "properties": {"norad_id": 38012, "name": "PLEIADES 1A", "group": "resource", "lat": 81.74601176959477, "lon": -17.024113926488333, "alt_km": 689.564683117047, "timestamp": "2025-12-18T23:35:48.704040+00:00", "meta": {"OBJECT_NAME": "PLEIADES 1A", "OBJECT_ID": "2011-076F", "EPOCH": "2025-12-18T15:42:53.728992", "MEAN_MOTION": 14.58566857, "ECCENTRICITY": 0.00011451, "INCLINATION": 98.1823, "RA_OF_ASC_NODE": 65.3323, "ARG_OF_PERICENTER": 73.2765, "MEAN_ANOMALY": 92.2457, "EPHEMERIS_TYPE": 0, "CLASSIFICATION_TYPE": "U", "NORAD_CAT_ID": 38012, "ELEMENT_SET_NO": 999, "REV_AT_EPOCH": 74567, "BSTAR": 7.4185064e-05, "MEAN_MOTION_DOT": 2.99e-06, "MEAN_MOTION_DDOT": 0}, "tle": {"line1": "1 38012U 11076F   25352.65478853  .00000299  00000+0  74185-4 0  9990", "line2": "2 38012  98.1823  65.3323 0001145  73.2765  92.2457 14.58566857745673"}}, "geometry": {"type": "Point", "coordinates": [-17.024113926488333, 81.74601176959477]}}, {"type": "Feature", "properties": {"norad_id": 38038, "name": "ZIYUAN 1-02C (ZY 1-02C)", "group": "resource", "lat": -73.47067131167279, "lon": -151.1121048878938, "alt_km": 775.9966745714128, "timestamp": "2025-12-18T23:35:48.704050+00:00", "meta": {"OBJECT_NAME": "ZIYUAN 1-02C (ZY 1-02C)", "OBJECT_ID": "2011-079A", "EPOCH": "2025-12-18T16:26:01.140288", "MEAN_MOTION": 14.38018818, "ECCENTRICITY": 0.00073706, "INCLINATION": 98.4334, "RA_OF_ASC_NODE": 58.5891, "ARG_OF_PERICENTER": 122.6638, "MEAN_ANOMALY": 28.7456, "EPHEMERIS_TYPE": 0, "CLASSIFICATION_TYPE": "U", "NORAD_CAT_ID": 38038, "ELEMENT_SET_NO": 999, "REV_AT_EPOCH": 73326, "BSTAR": 0.00015556035, "MEAN_MOTION_DOT": 4.28e-06, "MEAN_MOTION_DDOT": 0}, "tle": {"line1": "1 38038U 11079A   25352.68473542  .00000428  00000+0  15556-3 0  9994", "line2": "2 38038  98.4334  58.5891 0007370 122.6638  28.7456 14.38018818733261"}}, "geometry": {"type": "Point", "coordinates": [-151.1121048878938, -73.47067131167279]}}, {"type": "Feature", "properties": {"norad_id": 38338, "name": "ARIRANG-3 (KOMPSAT-3)", "group": "resource", "lat": 56.27485362953619, "lon": -65.06356603605815, "alt_km": 682.8359057382095, "timestamp": "2025-12-18T23:35:48.704061+00:00", "meta": {"OBJECT_NAME": "ARIRANG-3 (KOMPSAT-3)", "OBJECT_ID": "2012-025B", "EPOCH": "2025-12-18T15:07:18.507648", "MEAN_MOTION": 14.61720329, "ECCENTRICITY": 0.00049929, "INCLINATION": 98.333, "RA_OF_ASC_NODE": 307.264, "ARG_OF_PERICENTER": 318.4829, "MEAN_ANOMALY": 41.5992, "EPHEMERIS_TYPE": 0, "CLASSIFICATION_TYPE": "U", "NORAD_CAT_ID": 38338, "ELEMENT_SET_NO": 999, "REV_AT_EPOCH": 72496, "BSTAR": 9.656973e-05, "MEAN_MOTION_DOT": 4.33e-06, "MEAN_MOTION_DDOT": 0}, "tle": {"line1": "1 38338U 12025B   25352.63007532  .00000433  00000+0  96570-4 0  9998", "line2": "2 38338  98.3330 307.2640 0004992 318.4829  41.5992 14.61720329724967"}}, "geometry": {"type": "Point", "coordinates": [-65.06356603605815, 56.27485362953619]}}, {"type": "Feature", "properties": {"norad_id": 38709, "name": "EXACTVIEW-1 (ADS-1B)", "group": "resource", "lat": -50.12999146687104, "lon": 112.39670066294924, "alt_km": 808.976135990195, "timestamp": "2025-12-18T23:35:48.704071+00:00", "meta": {"OBJECT_NAME": "EXACTVIEW-1 (ADS-1B)", "OBJECT_ID": "2012-039C", "EPOCH": "2025-12-18T06:58:57.463968", "MEAN_MOTION": 14.24910205, "ECCENTRICITY": 0.00103924, "INCLINATION": 98.9637, "RA_OF_ASC_NODE": 100.7974, "ARG_OF_PERICENTER": 337.8294, "MEAN_ANOMALY": 22.2434, "EPHEMERIS_TYPE": 0, "CLASSIFICATION_TYPE": "U", "NORAD_CAT_ID": 38709, "ELEMENT_SET_NO": 999, "REV_AT_EPOCH": 69694, "BSTAR": 6.6165592e-05, "MEAN_MOTION_DOT": 1.08e-06, "MEAN_MOTION_DDOT": 0}, "tle": {"line1": "1 38709U 12039C   25352.29094287  .00000108  00000+0  66166-4 0  9997", "line2": "2 38709  98.9637 100.7974 0010392 337.8294  22.2434 14.24910205696949"}}, "geometry": {"type": "Point", "coordinates": [112.39670066294924, -50.12999146687104]}}, {"type": "Feature", "properties": {"norad_id": 38755, "name": "SPOT 6", "group": "resource", "lat": 12.654130536481299, "lon": 55.80765845145698, "alt_km": 698.67841857027, "timestamp": "2025-12-18T23:35:48.704082+00:00", "meta": {"OBJECT_NAME": "SPOT 6", "OBJECT_ID": "2012-047A", "EPOCH": "2025-12-18T15:18:22.018176", "MEAN_MOTION": 14.58537578, "ECCENTRICITY": 0.00013229, "INCLINATION": 98.1573, "RA_OF_ASC_NODE": 57.3141, "ARG_OF_PERICENTER": 77.4903, "MEAN_ANOMALY": 282.6444, "EPHEMERIS_TYPE": 0, "CLASSIFICATION_TYPE": "U", "NORAD_CAT_ID": 38755, "ELEMENT_SET_NO": 999, "REV_AT_EPOCH": 70673, "BSTAR": 6.1418442e-05, "MEAN_MOTION_DOT": 2.4e-06, "MEAN_MOTION_DDOT": 0}, "tle": {"line1": "1 38755U 12047A   25352.63775484  .00000240  00000+0  61418-4 0  9992", "line2": "2 38755  98.1573  57.3141 0001322  77.4903 282.6444 14.58537578706738"}}, "geometry": {"type": "Point", "coordinates": [55.80765845145698, 12.654130536481299]}}]}